{"type": "FeatureCollection", "features": [ {"type": "Feature", "properties": {"norad_id": 37430, "name": "FENGYUN 1C DEB", "group": "fengyun-1c-debris", "lat": -16.14615951285086, "lon": 55.36803154996208, "alt_km": 805.2304416082152, "timestamp": "2025-12-04T17:48:40.455052+00:00", "meta": {"OBJECT_NAME": "FENGYUN 1C DEB", "OBJECT_ID": "1999-025EGY", "EPOCH": "2025-12-02T22:11:25.130688", "MEAN_MOTION": 14.28805827, "ECCENTRICITY": 0.00188558, "INCLINATION": 98.7667, "RA_OF_ASC_NODE": 50.9812, "ARG_OF_PERICENTER": 100.007, "MEAN_ANOMALY": 260.324, "EPHEMERIS_TYPE": 0, "CLASSIFICATION_TYPE": "U", "NORAD_CAT_ID": 37430, "ELEMENT_SET_NO": 999, "REV_AT_EPOCH": 61561, "BSTAR": 0.0024289087, "MEAN_MOTION_DOT": 6.093e-05, "MEAN_MOTION_DDOT": 0}, "tle": {"line1": "1 37430U 99025EGY 25336.92459642  .00006093  00000+0  24289-2 0  9996", "line2": "2 37430  98.7667  50.9812 0018855 100.0070 260.3240 14.28805827615613"}}, "geometry": {"type": "Point", "coordinates": [55.36803154996208, -16.14615951285086]}}, {"type": "Feature", "properties": {"norad_id": 37432, "name": "FENGYUN 1C DEB", "group": "fengyun-1c-debris", "lat": 74.55347302237287, "lon": -39.19542968825864, "alt_km": 778.6504464638074, "timestamp": "2025-12-04T17:48:40.455062+00:00", "meta": {"OBJECT_NAME": "FENGYUN 1C DEB", "OBJECT_ID": "1999-025EHA", "EPOCH": "2025-12-02T07:37:37.120800", "MEAN_MOTION": 14.5327938, "ECCENTRICITY": 0.01827667, "INCLINATION": 98.1849, "RA_OF_ASC_NODE": 349.8265, "ARG_OF_PERICENTER": 320.333, "MEAN_ANOMALY": 38.4615, "EPHEMERIS_TYPE": 0, "CLASSIFICATION_TYPE": "U", "NORAD_CAT_ID": 37432, "ELEMENT_SET_NO": 999, "REV_AT_EPOCH": 8225, "BSTAR": 0.0011757415, "MEAN_MOTION_DOT": 6.037e-05, "MEAN_MOTION_DDOT": 0}, "tle": {"line1": "1 37432U 99025EHA 25336.31779075  .00006037  00000+0  11757-2 0  9990", "line2": "2 37432  98.1849 349.8265 0182766 320.3330  38.4615 14.53279380 82257"}}, "geometry": {"type": "Point", "coordinates": [-39.19542968825864, 74.55347302237287]}}, {"type": "Feature", "properties": {"norad_id": 37435, "name": "FENGYUN 1C DEB", "group": "fengyun-1c-debris", "lat": 17.421697840173728, "lon": -162.05774348746752, "alt_km": 834.6290121612146, "timestamp": "2025-12-04T17:48:40.455072+00:00", "meta": {"OBJECT_NAME": "FENGYUN 1C DEB", "OBJECT_ID": "1999-025EHD", "EPOCH": "2025-11-29T08:44:14.359776", "MEAN_MOTION": 14.22271668, "ECCENTRICITY": 0.00410088, "INCLINATION": 98.6499, "RA_OF_ASC_NODE": 9.9283, "ARG_OF_PERICENTER": 53.3524, "MEAN_ANOMALY": 307.1414, "EPHEMERIS_TYPE": 0, "CLASSIFICATION_TYPE": "U", "NORAD_CAT_ID": 37435, "ELEMENT_SET_NO": 999, "REV_AT_EPOCH": 88749, "BSTAR": 0.00099361212, "MEAN_MOTION_DOT": 2.183e-05, "MEAN_MOTION_DDOT": 0}, "tle": {"line1": "1 37435U 99025EHD 25333.36405509  .00002183  00000+0  99361-3 0  9999", "line2": "2 37435  98.6499   9.9283 0041008  53.3524 307.1414 14.22271668887490"}}, "geometry": {"type": "Point", "coordinates": [-162.05774348746752, 17.421697840173728]}}, {"type": "Feature", "properties": {"norad_id": 37436, "name": "FENGYUN 1C DEB", "group": "fengyun-1c-debris", "lat": -11.748528442279252, "lon": 35.212024023330265, "alt_km": 919.3475604174109, "timestamp": "2025-12-04T17:48:40.455082+00:00", "meta": {"OBJECT_NAME": "FENGYUN 1C DEB", "OBJECT_ID": "1999-025EHE", "EPOCH": "2025-12-03T21:22:40.554624", "MEAN_MOTION": 14.06321133, "ECCENTRICITY": 0.0059449, "INCLINATION": 98.9385, "RA_OF_ASC_NODE": 32.4958, "ARG_OF_PERICENTER": 172.588, "MEAN_ANOMALY": 187.6181, "EPHEMERIS_TYPE": 0, "CLASSIFICATION_TYPE": "U", "NORAD_CAT_ID": 37436, "ELEMENT_SET_NO": 999, "REV_AT_EPOCH": 63874, "BSTAR": 0.00096549, "MEAN_MOTION_DOT": 1.574e-05, "MEAN_MOTION_DDOT": 0}, "tle": {"line1": "1 37436U 99025EHE 25337.89074716  .00001574  00000+0  96549-3 0  9992", "line2": "2 37436  98.9385  32.4958 0059449 172.5880 187.6181 14.06321133638744"}}, "geometry": {"type": "Point", "coordinates": [35.212024023330265, -11.748528442279252]}}, {"type": "Feature", "properties": {"norad_id": 37437, "name": "FENGYUN 1C DEB", "group": "fengyun-1c-debris", "lat": -80.92247106961665, "lon": 79.85904639100937, "alt_km": 915.2615313158012, "timestamp": "2025-12-04T17:48:40.455093+00:00", "meta": {"OBJECT_NAME": "FENGYUN 1C DEB", "OBJECT_ID": "1999-025EHF", "EPOCH": "2025-11-30T18:36:25.322976", "MEAN_MOTION": 14.18810149, "ECCENTRICITY": 0.0113368, "INCLINATION": 98.5859, "RA_OF_ASC_NODE": 327.0314, "ARG_OF_PERICENTER": 82.7284, "MEAN_ANOMALY": 94.5607, "EPHEMERIS_TYPE": 0, "CLASSIFICATION_TYPE": "U", "NORAD_CAT_ID": 37437, "ELEMENT_SET_NO": 999, "REV_AT_EPOCH": 63821, "BSTAR": 0.0004989187, "MEAN_MOTION_DOT": 1.064e-05, "MEAN_MOTION_DDOT": 0}, "tle": {"line1": "1 37437U 99025EHF 25334.77529309  .00001064  00000+0  49892-3 0  9993", "line2": "2 37437  98.5859 327.0314 0113368  82.7284  94.5607 14.18810149638211"}}, "geometry": {"type": "Point", "coordinates": [79.85904639100937, -80.92247106961665]}}, {"type": "Feature", "properties": {"norad_id": 37438, "name": "FENGYUN 1C DEB", "group": "fengyun-1c-debris", "lat": 21.80398339765412, "lon": 14.356651471364968, "alt_km": 855.5634386893089, "timestamp": "2025-12-04T17:48:40.455103+00:00", "meta": {"OBJECT_NAME": "FENGYUN 1C DEB", "OBJECT_ID": "1999-025EHG", "EPOCH": "2025-12-01T20:09:02.419776", "MEAN_MOTION": 14.1547317, "ECCENTRICITY": 0.00283833, "INCLINATION": 98.7412, "RA_OF_ASC_NODE": 15.0402, "ARG_OF_PERICENTER": 252.5534, "MEAN_ANOMALY": 107.2536, "EPHEMERIS_TYPE": 0, "CLASSIFICATION_TYPE": "U", "NORAD_CAT_ID": 37438, "ELEMENT_SET_NO": 999, "REV_AT_EPOCH": 59981, "BSTAR": 0.00075470804, "MEAN_MOTION_DOT": 1.436e-05, "MEAN_MOTION_DDOT": 0}, "tle": {"line1": "1 37438U 99025EHG 25335.83961134  .00001436  00000+0  75471-3 0  9993", "line2": "2 37438  98.7412  15.0402 0028383 252.5534 107.2536 14.15473170599819"}}, "geometry": {"type": "Point", "coordinates": [14.356651471364968, 21.80398339765412]}}, {"type": "Feature", "properties": {"norad_id": 37441, "name": "FENGYUN 1C DEB", "group": "fengyun-1c-debris", "lat": 7.355747602886485, "lon": -174.53130408445966, "alt_km": 1038.0700717930185, "timestamp": "2025-12-04T17:48:40.455113+00:00", "meta": {"OBJECT_NAME": "FENGYUN 1C DEB", "OBJECT_ID": "1999-025EHK", "EPOCH": "2025-12-03T07:03:35.157888", "MEAN_MOTION": 13.14191734, "ECCENTRICITY": 0.0507983, "INCLINATION": 99.1467, "RA_OF_ASC_NODE": 185.4052, "ARG_OF_PERICENTER": 77.3697, "MEAN_ANOMALY": 288.3712, "EPHEMERIS_TYPE": 0, "CLASSIFICATION_TYPE": "U", "NORAD_CAT_ID": 37441, "ELEMENT_SET_NO": 999, "REV_AT_EPOCH": 82048, "BSTAR": 0.00191, "MEAN_MOTION_DOT": 1.323e-05, "MEAN_MOTION_DDOT": 0}, "tle": {"line1": "1 37441U 99025EHK 25337.29415692  .00001323  00000+0  19100-2 0  9993", "line2": "2 37441  99.1467 185.4052 0507983  77.3697 288.3712 13.14191734820480"}}, "geometry": {"type": "Point", "coordinates": [-174.53130408445966, 7.355747602886485]}}, {"type": "Feature", "properties": {"norad_id": 37444, "name": "FENGYUN 1C DEB", "group": "fengyun-1c-debris", "lat": -49.36593565398349, "lon": 69.40759804292723, "alt_km": 656.8872432745457, "timestamp": "2025-12-04T17:48:40.455143+00:00", "meta": {"OBJECT_NAME": "FENGYUN 1C DEB", "OBJECT_ID": "1999-025EHN", "EPOCH": "2025-12-02T11:18:21.455424", "MEAN_MOTION": 14.47933227, "ECCENTRICITY": 0.02456399, "INCLINATION": 99.0842, "RA_OF_ASC_NODE": 56.2208, "ARG_OF_PERICENTER": 19.7714, "MEAN_ANOMALY": 341.2798, "EPHEMERIS_TYPE": 0, "CLASSIFICATION_TYPE": "U", "NORAD_CAT_ID": 37444, "ELEMENT_SET_NO": 999, "REV_AT_EPOCH": 65002, "BSTAR": 0.00074813343, "MEAN_MOTION_DOT": 4.002e-05, "MEAN_MOTION_DDOT": 0}, "tle": {"line1": "1 37444U 99025EHN 25336.47108166  .00004002  00000+0  74813-3 0  9990", "line2": "2 37444  99.0842  56.2208 0245639  19.7714 341.2798 14.47933227650026"}}, "geometry": {"type": "Point", "coordinates": [69.40759804292723, -49.36593565398349]}}, {"type": "Feature", "properties": {"norad_id": 37448, "name": "FENGYUN 1C DEB", "group": "fengyun-1c-debris", "lat": 37.013675758548054, "lon": -129.52126744122418, "alt_km": 825.8248511611218, "timestamp": "2025-12-04T17:48:40.455154+00:00", "meta": {"OBJECT_NAME": "FENGYUN 1C DEB", "OBJECT_ID": "1999-025EHS", "EPOCH": "2025-12-03T09:59:46.946976", "MEAN_MOTION": 13.87016844, "ECCENTRICITY": 0.03074799, "INCLINATION": 99.3222, "RA_OF_ASC_NODE": 42.0416, "ARG_OF_PERICENTER": 83.7367, "MEAN_ANOMALY": 279.8715, "EPHEMERIS_TYPE": 0, "CLASSIFICATION_TYPE": "U", "NORAD_CAT_ID": 37448, "ELEMENT_SET_NO": 999, "REV_AT_EPOCH": 62246, "BSTAR": 0.0019068441, "MEAN_MOTION_DOT": 3.202e-05, "MEAN_MOTION_DDOT": 0}, "tle": {"line1": "1 37448U 99025EHS 25337.41651559  .00003202  00000+0  19068-2 0  9999", "line2": "2 37448  99.3222  42.0416 0307479  83.7367 279.8715 13.87016844622467"}}, "geometry": {"type": "Point", "coordinates": [-129.52126744122418, 37.013675758548054]}}, {"type": "Feature", "properties": {"norad_id": 37460, "name": "FENGYUN 1C DEB", "group": "fengyun-1c-debris", "lat": 70.82694572775762, "lon": -0.2307977943185902, "alt_km": 762.030976491832, "timestamp": "2025-12-04T17:48:40.455165+00:00", "meta": {"OBJECT_NAME": "FENGYUN 1C DEB", "OBJECT_ID": "1999-025EJE", "EPOCH": "2025-11-25T11:02:04.286976", "MEAN_MOTION": 14.47559339, "ECCENTRICITY": 0.00567916, "INCLINATION": 98.3795, "RA_OF_ASC_NODE": 145.4924, "ARG_OF_PERICENTER": 342.6942, "MEAN_ANOMALY": 17.2314, "EPHEMERIS_TYPE": 0, "CLASSIFICATION_TYPE": "U", "NORAD_CAT_ID": 37460, "ELEMENT_SET_NO": 999, "REV_AT_EPOCH": 82239, "BSTAR": 0.0024923704, "MEAN_MOTION_DOT": 9.323e-05, "MEAN_MOTION_DDOT": 0}, "tle": {"line1": "1 37460U 99025EJE 25329.45977184  .00009323  00000+0  24924-2 0  9990", "line2": "2 37460  98.3795 145.4924 0056791 342.6942  17.2314 14.47559339822392"}}, "geometry": {"type": "Point", "coordinates": [-0.2307977943185902, 70.82694572775762]}}]}